[{"OBJECT_NAME":"TEVEL2-6","OBJECT_ID":"2025-052F","EPOCH":"2026-03-09T15:35:24.554400","MEAN_MOTION":15.30760889,"ECCENTRICITY":0.0004769,"INCLINATION":97.4016,"RA_OF_ASC_NODE":325.0381,"ARG_OF_PERICENTER":95.6604,"MEAN_ANOMALY":264.5181,"EPHEMERIS_TYPE":0,"CLASSIFICATION_TYPE":"U","NORAD_CAT_ID":63215,"ELEMENT_SET_NO":999,"REV_AT_EPOCH":5486,"BSTAR":0.00070909,"MEAN_MOTION_DOT":0.00021046,"MEAN_MOTION_DDOT":0},{"OBJECT_NAME":"STARLINK-35401","OBJECT_ID":"2025-235K","EPOCH":"2026-03-09T17:04:15.937248","MEAN_MOTION":15.30199024,"ECCENTRICITY":9.851e-5,"INCLINATION":53.158,"RA_OF_ASC_NODE":245.2487,"ARG_OF_PERICENTER":61.4112,"MEAN_ANOMALY":298.6988,"EPHEMERIS_TYPE":0,"CLASSIFICATION_TYPE":"U","NORAD_CAT_ID":66067,"ELEMENT_SET_NO":999,"REV_AT_EPOCH":2289,"BSTAR":0.00069840102,"MEAN_MOTION_DOT":0.00020382,"MEAN_MOTION_DDOT":0}]
